NORAD_CAT_ID,OBJECT_NAME,OBJECT_TYPE,EPOCH,MEAN_MOTION,ECCENTRICITY,INCLINATION,RA_OF_ASC_NODE,ARG_OF_PERICENTER,MEAN_ANOMALY,BSTAR,MEAN_MOTION_DOT,MEAN_MOTION_DDOT,TLE_LINE0,TLE_LINE1,TLE_LINE2,SEMIMAJOR_AXIS,PERIOD,APOGEE,PERIGEE,DECAYED
52269.0,STARLINK-3791,PAYLOAD,2024-08-11 03:12:17,15.08850079,0.0001513,53.2167,172.8956,98.4334,261.683,2.9168e-05,1.76e-06,0.0,0 STARLINK-3791,1 52269U 22041J   24224.13353851  .00000176  00000-0  29168-4 0  9990,2 52269  53.2167 172.8956 0001513  98.4334 261.6830 15.08850079128694,6917.85,95.437,540.761,538.668,0.0
52269.0,STARLINK-3791,PAYLOAD,2024-08-11 06:23:03,15.08862229,0.0001442,53.2163,172.2966,99.7755,260.34,0.00013269,1.826e-05,0.0,0 STARLINK-3791,1 52269U 22041J   24224.26600767  .00001826  00000-0  13269-3 0  9992,2 52269  53.2163 172.2966 0001442  99.7755 260.3400 15.08862229128719,6917.812,95.436,540.675,538.68,0.0
52269.0,STARLINK-3791,PAYLOAD,2024-08-11 20:41:33,15.08837467,0.000175,53.2151,169.6246,85.1954,274.9238,0.00013646,1.884e-05,0.0,0 STARLINK-3791,1 52269U 22041J   24224.86218794  .00001884  00000-0  13646-3 0  9996,2 52269  53.2151 169.6246 0001750  85.1954 274.9238 15.08837467128805,6917.888,95.438,540.964,538.543,0.0
52269.0,STARLINK-3791,PAYLOAD,2024-08-12 03:03:04,15.08854263,0.0001307,53.2157,168.4299,93.5243,266.5899,0.00044741,6.843e-05,0.0,0 STARLINK-3791,1 52269U 22041J   24225.12713943  .00006843  00000-0  44741-3 0  9992,2 52269  53.2157 168.4299 0001307  93.5243 266.5899 15.08854263128845,6917.837,95.437,540.606,538.798,0.0
52269.0,STARLINK-3791,PAYLOAD,2024-08-12 06:13:50,15.08858814,0.0001419,53.216,167.8346,98.5909,261.5244,0.00030549,4.58e-05,0.0,0 STARLINK-3791,1 52269U 22041J   24225.25961429  .00004580  00000-0  30549-3 0  9997,2 52269  53.2160 167.8346 0001419  98.5909 261.5244 15.08858814127645,6917.823,95.436,540.67,538.706,0.0
52269.0,STARLINK-3791,PAYLOAD,2024-08-12 20:32:18,15.08854497,0.0001295,53.2156,165.159,111.8967,248.2163,0.00012714,1.737e-05,0.0,0 STARLINK-3791,1 52269U 22041J   24225.85577253  .00001737  00000-0  12714-3 0  9996,2 52269  53.2156 165.1590 0001295 111.8967 248.2163 15.08854497127732,6917.836,95.437,540.597,538.805,0.0
52269.0,STARLINK-3791,PAYLOAD,2024-08-13 02:53:52,15.08821609,0.0001366,53.2156,163.972,86.6501,273.4648,-0.00040804,-6.773e-05,0.0,0 STARLINK-3791,1 52269U 22041J   24226.12074770 -.00006773  00000-0 -40804-3 0  9991,2 52269  53.2156 163.9720 0001366  86.6501 273.4648 15.08821609128991,6917.937,95.439,540.747,538.857,0.0
52269.0,STARLINK-3791,PAYLOAD,2024-08-13 12:26:11,15.08819381,0.0001412,53.2157,162.1891,90.9406,269.1748,-0.00031899,-5.358e-05,0.0,0 STARLINK-3791,1 52269U 22041J   24226.51819182 -.00005358  00000-0 -31899-3 0  9990,2 52269  53.2157 162.1891 0001412  90.9406 269.1748 15.08819381127835,6917.943,95.439,540.785,538.832,0.0
52269.0,STARLINK-3791,PAYLOAD,2024-08-13 20:23:07,15.08818182,0.0001375,53.2155,160.7024,90.1148,270.0001,-0.0001841,-3.215e-05,0.0,0 STARLINK-3791,1 52269U 22041J   24226.84939737 -.00003215  00000-0 -18410-3 0  9999,2 52269  53.2155 160.7024 0001375  90.1148 270.0001 15.08818182127884,6917.947,95.439,540.763,538.861,0.0
52269.0,STARLINK-3791,PAYLOAD,2024-08-14 04:20:04,15.08833947,0.000145,53.2156,159.2163,92.1135,268.0023,0.001281,0.00020155,0.0,0 STARLINK-3791,1 52269U 22041J   24227.18060361  .00020155  00000-0  12810-2 0  9992,2 52269  53.2156 159.2163 0001450  92.1135 268.0023 15.08833947129153,6917.899,95.438,540.767,538.761,0.0
52269.0,STARLINK-3791,PAYLOAD,2024-08-14 12:16:59,15.08845846,0.0001416,53.2151,157.7295,92.9549,267.1605,0.00099913,0.00015651,0.0,0 STARLINK-3791,1 52269U 22041J   24227.51180275  .00015651  00000-0  99913-3 0  9991,2 52269  53.2151 157.7295 0001416  92.9549 267.1605 15.08845846127982,6917.863,95.437,540.707,538.748,0.0
52269.0,STARLINK-3791,PAYLOAD,2024-08-15 12:07:45,15.08869276,0.0001381,53.215,153.2691,70.4558,289.6584,0.00082139,0.00012819,0.0,0 STARLINK-3791,1 52269U 22041J   24228.50538972  .00012819  00000-0  82139-3 0  9997,2 52269  53.2150 153.2691 0001381  70.4558 289.6584 15.08869276128130,6917.791,95.436,540.611,538.701,0.0
52269.0,STARLINK-3791,PAYLOAD,2024-08-16 02:26:14,15.08847102,0.0001317,53.2144,150.5925,73.2189,286.8948,0.0015417,0.00024338,0.0,0 STARLINK-3791,1 52269U 22041J   24229.10155156  .00024338  00000-0  15417-2 0  9996,2 52269  53.2144 150.5925 0001317  73.2189 286.8948 15.08847102129445,6917.859,95.437,540.635,538.813,0.0
52269.0,STARLINK-3791,PAYLOAD,2024-08-17 03:52:24,15.08851766,0.0001367,53.2154,145.8312,72.8812,287.233,0.0012364,0.0001945,0.0,0 STARLINK-3791,1 52269U 22041J   24230.16139147  .00019450  00000-0  12364-2 0  9993,2 52269  53.2154 145.8312 0001367  72.8812 287.2330 15.08851766129605,6917.844,95.437,540.655,538.764,0.0
52269.0,STARLINK-3791,PAYLOAD,2024-08-17 18:10:52,15.08836671,0.0001114,53.2152,143.1578,114.7674,245.3434,0.00046463,7.114e-05,0.0,0 STARLINK-3791,1 52269U 22041J   24230.75755366  .00007114  00000-0  46463-3 0  9997,2 52269  53.2152 143.1578 0001114 114.7674 245.3434 15.08836671129697,6917.891,95.438,540.526,538.985,0.0
52269.0,STARLINK-3791,PAYLOAD,2024-08-18 03:43:11,15.08852604,0.0001469,53.2155,141.3726,113.2309,246.8838,0.0011715,0.00018412,0.0,0 STARLINK-3791,1 52269U 22041J   24231.15499210  .00018412  00000-0  11715-2 0  9999,2 52269  53.2155 141.3726 0001469 113.2309 246.8838 15.08852604129752,6917.842,95.437,540.723,538.691,0.0
52269.0,STARLINK-3791,PAYLOAD,2024-08-18 18:01:39,15.08842354,0.000148,53.2158,138.6976,98.7455,261.3705,0.00081554,0.00012716,0.0,0 STARLINK-3791,1 52269U 22041J   24231.75115605  .00012716  00000-0  81554-3 0  9998,2 52269  53.2158 138.6976 0001480  98.7455 261.3705 15.08842354129849,6917.873,95.437,540.762,538.714,0.0
52269.0,STARLINK-3791,PAYLOAD,2024-08-19 03:33:58,15.08858257,0.0001312,53.2159,136.9127,104.5672,255.5466,0.0010327,0.00016194,0.0,0 STARLINK-3791,1 52269U 22041J   24232.14859206  .00016194  00000-0  10327-2 0  9997,2 52269  53.2159 136.9127 0001312 104.5672 255.5466 15.08858257128689,6917.825,95.436,540.597,538.782,0.0
52269.0,STARLINK-3791,PAYLOAD,2024-08-19 21:03:13,15.08846648,0.0001976,53.2153,133.6352,125.8874,234.2302,0.00038163,5.792e-05,0.0,0 STARLINK-3791,1 52269U 22041J   24232.87723493  .00005792  00000-0  38163-3 0  9996,2 52269  53.2153 133.6352 0001976 125.8874 234.2302 15.08846648130017,6917.86,95.437,541.092,538.358,0.0
52269.0,STARLINK-3791,PAYLOAD,2024-08-20 03:24:45,15.08845707,0.0001438,53.2167,132.4524,89.3148,270.8008,0.0006822,0.00010588,0.0,0 STARLINK-3791,1 52269U 22041J   24233.14219817  .00010588  00000-0  68220-3 0  9993,2 52269  53.2167 132.4524 0001438  89.3148 270.8008 15.08845707130059,6917.863,95.437,540.723,538.733,0.0
52269.0,STARLINK-3791,PAYLOAD,2024-08-21 00:04:46,15.08857621,0.0001542,53.2164,128.5862,92.6926,267.4243,0.00071007,0.00011036,0.0,0 STARLINK-3791,1 52269U 22041J   24234.00331417  .00011036  00000-0  71007-3 0  9996,2 52269  53.2164 128.5862 0001542  92.6926 267.4243 15.08857621130189,6917.827,95.436,540.758,538.625,0.0
52269.0,STARLINK-3791,PAYLOAD,2024-08-21 20:44:47,15.08841214,0.0001459,53.2161,124.7208,106.8242,253.2911,0.00017004,2.419e-05,0.0,0 STARLINK-3791,1 52269U 22041J   24234.86443705  .00002419  00000-0  17004-3 0  9996,2 52269  53.2161 124.7208 0001459 106.8242 253.2911 15.08841214130315,6917.877,95.437,540.751,538.732,0.0
